{
  "type": "FeatureCollection",
  "features": [
    {
      "type": "Feature",
      "properties": {
        "norad_id": 29843,
        "name": "FENGYUN 1C DEB",
        "group": "fengyun-1c-debris",
        "lat": -13.589948199671419,
        "lon": -174.65508496984108,
        "alt_km": 711.3679327553218,
        "timestamp": "2025-12-10T20:49:52.825215+00:00",
        "meta_object_name": "FENGYUN 1C DEB",
        "meta_object_id": "1999-025EM",
        "meta_epoch": "2025-12-10T11:06:06.892992",
        "meta_mean_motion": 14.28558218,
        "meta_eccentricity": 0.01918337,
        "meta_inclination": 99.0374,
        "meta_ra_of_asc_node": 182.72,
        "meta_arg_of_pericenter": 297.3449,
        "meta_mean_anomaly": 123.6514,
        "meta_ephemeris_type": 0,
        "meta_classification_type": "U",
        "meta_norad_cat_id": 29843,
        "meta_element_set_no": 999,
        "meta_rev_at_epoch": 98249,
        "meta_bstar": 0.00028308789,
        "meta_mean_motion_dot": 8.11e-06,
        "meta_mean_motion_ddot": 0,
        "tle_line1": "1 29843U 99025EM  25344.46257978  .00000811  00000+0  28309-3 0  9991",
        "tle_line2": "2 29843  99.0374 182.7200 0191833 297.3449 123.6514 14.28558218982491"
      },
      "geometry": {
        "type": "Point",
        "coordinates": [
          -174.65508496984108,
          -13.589948199671419
        ]
      }
    },
    {
      "type": "Feature",
      "properties": {
        "norad_id": 29844,
        "name": "FENGYUN 1C DEB",
        "group": "fengyun-1c-debris",
        "lat": 3.8599554618017584,
        "lon": -114.45513226237199,
        "alt_km": 905.3515082668009,
        "timestamp": "2025-12-10T20:49:52.825225+00:00",
        "meta_object_name": "FENGYUN 1C DEB",
        "meta_object_id": "1999-025EN",
        "meta_epoch": "2025-12-09T16:18:13.372416",
        "meta_mean_motion": 14.31971925,
        "meta_eccentricity": 0.01679175,
        "meta_inclination": 98.9359,
        "meta_ra_of_asc_node": 244.9289,
        "meta_arg_of_pericenter": 176.0112,
        "meta_mean_anomaly": 184.2454,
        "meta_ephemeris_type": 0,
        "meta_classification_type": "U",
        "meta_norad_cat_id": 29844,
        "meta_element_set_no": 999,
        "meta_rev_at_epoch": 98297,
        "meta_bstar": 0.00067696668,
        "meta_mean_motion_dot": 2.071e-05,
        "meta_mean_motion_ddot": 0,
        "tle_line1": "1 29844U 99025EN  25343.67932144  .00002071  00000+0  67697-3 0  9992",
        "tle_line2": "2 29844  98.9359 244.9289 0167917 176.0112 184.2454 14.31971925982974"
      },
      "geometry": {
        "type": "Point",
        "coordinates": [
          -114.45513226237199,
          3.8599554618017584
        ]
      }
    },
    {
      "type": "Feature",
      "properties": {
        "norad_id": 29845,
        "name": "FENGYUN 1C DEB",
        "group": "fengyun-1c-debris",
        "lat": -65.40358591748532,
        "lon": 4.381947056013285,
        "alt_km": 861.9731927085822,
        "timestamp": "2025-12-10T20:49:52.825236+00:00",
        "meta_object_name": "FENGYUN 1C DEB",
        "meta_object_id": "1999-025EP",
        "meta_epoch": "2025-12-10T11:37:40.075968",
        "meta_mean_motion": 14.264737,
        "meta_eccentricity": 0.00778324,
        "meta_inclination": 98.522,
        "meta_ra_of_asc_node": 344.8885,
        "meta_arg_of_pericenter": 137.7492,
        "meta_mean_anomaly": 346.9327,
        "meta_ephemeris_type": 0,
        "meta_classification_type": "U",
        "meta_norad_cat_id": 29845,
        "meta_element_set_no": 999,
        "meta_rev_at_epoch": 98077,
        "meta_bstar": 0.00081803024,
        "meta_mean_motion_dot": 1.992e-05,
        "meta_mean_motion_ddot": 0,
        "tle_line1": "1 29845U 99025EP  25344.48449162  .00001992  00000+0  81803-3 0  9992",
        "tle_line2": "2 29845  98.5220 344.8885 0077832 137.7492 346.9327 14.26473700980775"
      },
      "geometry": {
        "type": "Point",
        "coordinates": [
          4.381947056013285,
          -65.40358591748532
        ]
      }
    },
    {
      "type": "Feature",
      "properties": {
        "norad_id": 29846,
        "name": "FENGYUN 1C DEB",
        "group": "fengyun-1c-debris",
        "lat": 13.729938545225684,
        "lon": 24.59783994876256,
        "alt_km": 802.6780374152258,
        "timestamp": "2025-12-10T20:49:52.825245+00:00",
        "meta_object_name": "FENGYUN 1C DEB",
        "meta_object_id": "1999-025EQ",
        "meta_epoch": "2025-12-10T14:42:55.308096",
        "meta_mean_motion": 14.19090132,
        "meta_eccentricity": 0.00839582,
        "meta_inclination": 98.6554,
        "meta_ra_of_asc_node": 26.4818,
        "meta_arg_of_pericenter": 310.5065,
        "meta_mean_anomaly": 201.4983,
        "meta_ephemeris_type": 0,
        "meta_classification_type": "U",
        "meta_norad_cat_id": 29846,
        "meta_element_set_no": 999,
        "meta_rev_at_epoch": 97829,
        "meta_bstar": 0.00021343999,
        "meta_mean_motion_dot": 4.18e-06,
        "meta_mean_motion_ddot": 0,
        "tle_line1": "1 29846U 99025EQ  25344.61314014  .00000418  00000+0  21344-3 0  9991",
        "tle_line2": "2 29846  98.6554  26.4818 0083958 310.5065 201.4983 14.19090132978292"
      },
      "geometry": {
        "type": "Point",
        "coordinates": [
          24.59783994876256,
          13.729938545225684
        ]
      }
    },
    {
      "type": "Feature",
      "properties": {
        "norad_id": 29847,
        "name": "FENGYUN 1C DEB",
        "group": "fengyun-1c-debris",
        "lat": 6.552462487238884,
        "lon": -20.212601391676024,
        "alt_km": 835.9323608209643,
        "timestamp": "2025-12-10T20:49:52.825255+00:00",
        "meta_object_name": "FENGYUN 1C DEB",
        "meta_object_id": "1999-025ER",
        "meta_epoch": "2025-12-10T12:47:50.493984",
        "meta_mean_motion": 14.02994855,
        "meta_eccentricity": 0.00853513,
        "meta_inclination": 98.9023,
        "meta_ra_of_asc_node": 340.4916,
        "meta_arg_of_pericenter": 44.9849,
        "meta_mean_anomaly": 72.5396,
        "meta_ephemeris_type": 0,
        "meta_classification_type": "U",
        "meta_norad_cat_id": 29847,
        "meta_element_set_no": 999,
        "meta_rev_at_epoch": 96704,
        "meta_bstar": 0.00036020962,
        "meta_mean_motion_dot": 5.34e-06,
        "meta_mean_motion_ddot": 0,
        "tle_line1": "1 29847U 99025ER  25344.53322331  .00000534  00000+0  36021-3 0  9991",
        "tle_line2": "2 29847  98.9023 340.4916 0085351  44.9849  72.5396 14.02994855967045"
      },
      "geometry": {
        "type": "Point",
        "coordinates": [
          -20.212601391676024,
          6.552462487238884
        ]
      }
    },
    {
      "type": "Feature",
      "properties": {
        "norad_id": 29848,
        "name": "FENGYUN 1C DEB",
        "group": "fengyun-1c-debris",
        "lat": 54.570753975065635,
        "lon": -160.17554750236113,
        "alt_km": 852.8144174650588,
        "timestamp": "2025-12-10T20:49:52.825265+00:00",
        "meta_object_name": "FENGYUN 1C DEB",
        "meta_object_id": "1999-025ES",
        "meta_epoch": "2025-12-10T13:56:57.406272",
        "meta_mean_motion": 14.20546691,
        "meta_eccentricity": 0.01172376,
        "meta_inclination": 98.2484,
        "meta_ra_of_asc_node": 211.3216,
        "meta_arg_of_pericenter": 301.5861,
        "meta_mean_anomaly": 87.0661,
        "meta_ephemeris_type": 0,
        "meta_classification_type": "U",
        "meta_norad_cat_id": 29848,
        "meta_element_set_no": 999,
        "meta_rev_at_epoch": 97087,
        "meta_bstar": 0.0021742811,
        "meta_mean_motion_dot": 4.969e-05,
        "meta_mean_motion_ddot": 0,
        "tle_line1": "1 29848U 99025ES  25344.58121998  .00004969  00000+0  21743-2 0  9993",
        "tle_line2": "2 29848  98.2484 211.3216 0117237 301.5861  87.0661 14.20546691970876"
      },
      "geometry": {
        "type": "Point",
        "coordinates": [
          -160.17554750236113,
          54.570753975065635
        ]
      }
    },
    {
      "type": "Feature",
      "properties": {
        "norad_id": 29849,
        "name": "FENGYUN 1C DEB",
        "group": "fengyun-1c-debris",
        "lat": 5.124834819054148,
        "lon": 68.44072994483189,
        "alt_km": 837.2069975036575,
        "timestamp": "2025-12-10T20:49:52.825275+00:00",
        "meta_object_name": "FENGYUN 1C DEB",
        "meta_object_id": "1999-025ET",
        "meta_epoch": "2025-12-10T12:19:42.259584",
        "meta_mean_motion": 14.04882272,
        "meta_eccentricity": 0.00806887,
        "meta_inclination": 99.0112,
        "meta_ra_of_asc_node": 68.9044,
        "meta_arg_of_pericenter": 50.8966,
        "meta_mean_anomaly": 324.1967,
        "meta_ephemeris_type": 0,
        "meta_classification_type": "U",
        "meta_norad_cat_id": 29849,
        "meta_element_set_no": 999,
        "meta_rev_at_epoch": 96339,
        "meta_bstar": 0.0013539305,
        "meta_mean_motion_dot": 2.196e-05,
        "meta_mean_motion_ddot": 0,
        "tle_line1": "1 29849U 99025ET  25344.51368356  .00002196  00000+0  13539-2 0  9992",
        "tle_line2": "2 29849  99.0112  68.9044 0080688  50.8966 324.1967 14.04882272963391"
      },
      "geometry": {
        "type": "Point",
        "coordinates": [
          68.44072994483189,
          5.124834819054148
        ]
      }
    }
  ]
}